{
    "links": {
        "self": "http://www.neowsapp.com/rest/v1/neo/3587870?api_key=iIulBulltgU6a56xZRHN4H3l9WmuAYTsLGpBGhQ2"
    },
    "id": "3587870",
    "neo_reference_id": "3587870",
    "name": "(2011 VF9)",
    "designation": "2011 VF9",
    "nasa_jpl_url": "http://ssd.jpl.nasa.gov/sbdb.cgi?sstr=3587870",
    "absolute_magnitude_h": 23.0,
    "estimated_diameter": {
        "kilometers": {
            "estimated_diameter_min": 0.0667659413,
            "estimated_diameter_max": 0.1492931834
        },
        "meters": {
            "estimated_diameter_min": 66.7659413495,
            "estimated_diameter_max": 149.2931834393
        },
        "miles": {
            "estimated_diameter_min": 0.0414864197,
            "estimated_diameter_max": 0.0927664547
        },
        "feet": {
            "estimated_diameter_min": 219.0483710172,
            "estimated_diameter_max": 489.807047955
        }
    },
    "is_potentially_hazardous_asteroid": false,
    "close_approach_data": [
        {
            "close_approach_date": "2011-11-17",
            "close_approach_date_full": "2011-Nov-17 19:46",
            "epoch_date_close_approach": 1321559160000,
            "relative_velocity": {
                "kilometers_per_second": "12.3193645187",
                "kilometers_per_hour": "44349.712267388",
                "miles_per_hour": "27557.1864919223"
            },
            "miss_distance": {
                "astronomical": "0.2155026876",
                "lunar": "83.8305454764",
                "kilometers": "32238743.044235412",
                "miles": "20032226.0210242056"
            },
            "orbiting_body": "Earth"
        }
    ],
    "orbital_data": {
        "orbit_id": "7",
        "orbit_determination_date": "2017-04-06 08:52:03",
        "first_observation_date": "2011-11-15",
        "last_observation_date": "2011-11-30",
        "data_arc_in_days": 15,
        "observations_used": 28,
        "orbit_uncertainty": "8",
        "minimum_orbit_intersection": ".215375",
        "jupiter_tisserand_invariant": "3.972",
        "epoch_osculation": "2455885.5",
        "eccentricity": ".3185797205162669",
        "semi_major_axis": "1.75910750658096",
        "inclination": "23.10697959733002",
        "ascending_node_longitude": "52.65382016305671",
        "orbital_period": "852.1911105970437",
        "perihelion_distance": "1.198691528776331",
        "perihelion_argument": "12.66398673677459",
        "aphelion_distance": "2.31952348438559",
        "perihelion_time": "2455895.430829287652",
        "mean_anomaly": "355.8048159631118",
        "mean_motion": ".4224404544043936",
        "equinox": "J2000",
        "orbit_class": {
            "orbit_class_type": "AMO",
            "orbit_class_description": "Near-Earth asteroid orbits similar to that of 1221 Amor",
            "orbit_class_range": "1.017 AU < q (perihelion) < 1.3 AU"
        }
    },
    "is_sentry_object": false
}